STARLINK-31267          
1 59468U 24068P   26067.26591769 -.00000770  00000+0 -18480-4 0  9998
2 59468  43.0021  38.3404 0001137 277.3139  82.7584 15.27568172108355
FLOCK 4G-15             
1 62678U 25009BX  26068.71779869  .00012647  00000+0  47575-3 0  9991
2 62678  97.4054 151.1927 0003699 316.8208  43.2740 15.27266411121358
